TROPICS-06              
1 56444U 23062C   25254.48858736  .00126377  00000+0  83239-3 0  9996
2 56444  32.7239 315.3611 0002985  54.2828 305.8138 15.74200482131325
STARLINK-5990           
1 56448U 23064A   25254.36798869  .00000613  00000+0  59187-4 0  9999
2 56448  69.9991 236.6591 0003033 271.3813  88.6999 14.98332644128383
STARLINK-5993           
1 56449U 23064B   25254.65573384 -.00000072  00000+0  17662-5 0  9998
2 56449  69.9991 236.0577 0003471 269.9160  90.1601 14.98331877128426
STARLINK-5970           
1 56450U 23064C   25254.36382802  .00000729  00000+0  68847-4 0  9999
2 56450  69.9988 236.6445 0003466 272.4173  87.6589 14.98337852128381
STARLINK-5985           
1 56451U 23064D   25254.65156552  .00000459  00000+0  46243-4 0  9999
2 56451  69.9989 236.0432 0002934 269.5402  90.5421 14.98332411128423
STARLINK-5986           
1 56452U 23064E   25254.64740076 -.00000087  00000+0  50214-6 0  9992
2 56452  69.9990 236.0288 0003140 271.3750  88.7050 14.98324548128421
STARLINK-5935           
1 56453U 23064F   25254.24265197  .00000192  00000+0  23916-4 0  9998
2 56453  69.9991 237.0238 0003539 268.9493  91.1261 14.98331727128369
STARLINK-5959           
1 56454U 23064G   25254.22178217  .00000099  00000+0  16090-4 0  9994
2 56454  69.9988 236.9501 0003856 269.2705  90.8013 14.98329837128369
STARLINK-5987           
1 56455U 23064H   25254.35113513  .00001054  00000+0  96133-4 0  9995
2 56455  69.9989 236.5984 0003711 266.6669  93.4066 14.98339697128386
STARLINK-5995           
1 56456U 23064J   25254.36363924  .00009462  00000+0  80028-3 0  9996
2 56456  69.9985 236.6417 0002730 270.4650  89.6196 14.98303202128382
STARLINK-5994           
1 56457U 23064K   25254.35947470  .00000320  00000+0  34606-4 0  9996
2 56457  69.9988 236.6275 0003719 269.2036  90.8697 14.98331808128383
STARLINK-6050           
1 56458U 23064L   25254.23430214  .00000638  00000+0  61286-4 0  9993
2 56458  69.9989 236.9932 0004073 265.0115  95.0579 14.98332169128369
STARLINK-6048           
1 56459U 23064M   25254.66839626 -.00000075  00000+0  14759-5 0  9991
2 56459  69.9991 235.6994 0003058 269.9579  90.1230 14.98329761128427
STARLINK-6047           
1 56460U 23064N   25254.34695406  .00000114  00000+0  17381-4 0  9990
2 56460  69.9988 236.5841 0003296 266.9023  93.1759 14.98330325128383
STARLINK-6037           
1 56461U 23064P   25254.66405509 -.00000703  00000+0 -51083-4 0  9992
2 56461  69.9994 235.6830 0003395 268.9336  91.1434 14.98335206128435
STARLINK-6045           
1 56462U 23064Q   25254.95166195 -.00000854  00000+0 -63785-4 0  9999
2 56462  70.0003 194.9144 0003001 268.8326  91.2489 14.98329380129468
STARLINK-6051           
1 56463U 23064R   25254.37199693  .00000344  00000+0  36647-4 0  9994
2 56463  69.9987 236.6645 0003298 269.4633  90.6148 14.98331976128382
STARLINK-6043           
1 56464U 23064S   25254.67657692 -.00000114  00000+0 -17289-5 0  9995
2 56464  69.9993 235.7276 0003754 274.0108  86.0622 14.98330904128438
STARLINK-6054           
1 56465U 23064T   25254.89308061 -.00000490  00000+0 -33287-4 0  9995
2 56465  70.0001 195.1080 0003194 267.7953  92.2840 14.98331328129454
STARLINK-6053           
1 56466U 23064U   25254.66822974 -.00000133  00000+0 -33624-5 0  9995
2 56466  69.9992 235.6982 0003498 270.3911  89.6847 14.98330517128436
STARLINK-6055           
1 56467U 23064V   25254.95591951 -.00000416  00000+0 -27063-4 0  9999
2 56467  69.9983 215.2299 0003181 269.8292  90.2503 14.98328413128963
STARLINK-5998           
1 56468U 23064W   25253.99228417 -.00000238  00000+0 -12155-4 0  9995
2 56468  69.9990 237.3512 0002818 267.3863  92.6974 14.98339176128335
STARLINK-5518           
1 56469U 23064X   25254.63463982  .00000200  00000+0  24526-4 0  9998
2 56469  69.9994 216.1154 0003315 268.6297  91.4482 14.98332559128918
STARLINK-5523           
1 56470U 23064Y   25254.62629348 -.00002805  00000+0 -22734-3 0  9992
2 56470  69.9998 216.0863 0003505 264.3891  95.6868 14.98331221128913
STARLINK-5521           
1 56471U 23064Z   25254.95174172 -.00000060  00000+0  27471-5 0  9994
2 56471  69.9987 215.2142 0003809 266.5943  93.4781 14.98332238128966
STARLINK-5038           
1 56472U 23064AA  25254.94339700 -.00000221  00000+0 -10686-4 0  9993
2 56472  69.9990 215.1864 0003356 269.9177  90.1598 14.98327949128967
STARLINK-5524           
1 56474U 23064AC  25254.29666814  .00000081  00000+0  14545-4 0  9992
2 56474  69.9994 216.9430 0002754 267.7831  92.3013 14.98330984128863
STARLINK-5541           
1 56475U 23064AD  25254.93922172 -.00000146  00000+0 -44704-5 0  9991
2 56475  69.9995 215.1681 0003494 270.8429  89.2330 14.98327937128966
STARLINK-5545           
1 56476U 23064AE  25254.94757210  .00000211  00000+0  25467-4 0  9997
2 56476  69.9982 215.1991 0002534 267.9787  92.1081 14.98331323128965
STARLINK-5534           
1 56477U 23064AF  25254.78919087 -.00001496  00000+0 -11766-3 0  9996
2 56477  69.9990 215.4492 0003983 276.9970  83.0736 14.98314818128941
STARLINK-6041           
1 56478U 23064AG  25254.93504620  .00000085  00000+0  14913-4 0  9996
2 56478  69.9991 215.1553 0002972 268.9841  91.0978 14.98334333128966
STARLINK-6044           
1 56479U 23064AH  25254.91001232 -.00001768  00000+0 -14042-3 0  9999
2 56479  69.9990 215.0676 0003699 267.5857  92.4879 14.98319286128965
STARLINK-6214           
1 56480U 23064AJ  25254.93423852  .00009580  00000+0  52497-3 0  9993
2 56480  69.9990 197.2456 0002802 277.5182  82.5667 15.14458560129415
STARLINK-6222           
1 56481U 23064AK  25254.91834967  .00000685  00000+0  65230-4 0  9992
2 56481  69.9994 215.0964 0003113 275.0598  85.0206 14.98332419128964
STARLINK-6220           
1 56482U 23064AL  25254.93087261 -.00000097  00000+0 -36623-6 0  9997
2 56482  69.9995 215.1408 0002932 270.7643  89.3180 14.98331094128967
STARLINK-5868           
1 56483U 23064AM  25254.92669815  .00000034  00000+0  10630-4 0  9995
2 56483  69.9992 215.1224 0003085 269.6638  90.4167 14.98333942128964
STARLINK-6221           
1 56484U 23064AN  25254.91670139 -.00000003  00000+0  75096-5 0  9991
2 56484  70.0016 215.1254 0002997 265.9759  62.5981 14.98334662  5713
STARLINK-6210           
1 56485U 23064AP  25254.90587976 -.00008135  00000+0 -67574-3 0  9992
2 56485  70.0001 215.0521 0004994 277.4569  82.6022 14.98268847128963
STARLINK-6201           
1 56486U 23064AQ  25254.91417393  .00000214  00000+0  25719-4 0  9993
2 56486  69.9985 215.0817 0003181 269.7902  90.2892 14.98333730128966
STARLINK-6196           
1 56487U 23064AR  25254.95567048 -.00000506  00000+0 -34631-4 0  9990
2 56487  70.0006 194.9614 0003038 267.8537  92.2274 14.98328654129469
STARLINK-6204           
1 56488U 23064AS  25254.93064918 -.00000317  00000+0 -18756-4 0  9997
2 56488  70.0004 195.2709 0002913 271.4539  88.6286 14.98334086129458
STARLINK-5923           
1 56489U 23064AT  25254.91813466  .00003218  00000+0  27750-3 0  9990
2 56489  70.0000 195.2265 0002953 271.5355  88.5465 14.98316336129459
STARLINK-5873           
1 56490U 23064AU  25254.93899880 -.00000154  00000+0 -51284-5 0  9997
2 56490  70.0001 195.2991 0003268 269.2086  90.8699 14.98332741129456
STARLINK-5842           
1 56491U 23064AV  25254.91395289  .00000210  00000+0  25373-4 0  9990
2 56491  69.9997 195.2126 0002819 261.5253  98.5587 14.98330472129450
STARLINK-5846           
1 56492U 23064AW  25254.90978569 -.00000705  00000+0 -51295-4 0  9991
2 56492  69.9990 195.1966 0003350 270.1013  89.9762 14.98320898129456
STARLINK-5841           
1 56493U 23064AX  25254.89703603 -.00000703  00000+0 -51131-4 0  9992
2 56493  70.0003 175.2717 0002808 270.9502  89.1335 14.98333691129943
STARLINK-5530           
1 56494U 23064AY  25254.90994489  .00000107  00000+0  16755-4 0  9998
2 56494  69.9994 195.1976 0002790 268.2952  91.7888 14.98329815129458
STARLINK-5529           
1 56495U 23064AZ  25254.90143298 -.00000874  00000+0 -65420-4 0  9999
2 56495  69.9997 195.1686 0003248 270.3859  89.6927 14.98333394129456
STARLINK-5526           
1 56496U 23064BA  25254.89726378  .00001258  00000+0  11316-3 0  9993
2 56496  69.9994 195.1534 0002661 269.1667  90.9187 14.98342107129452
STARLINK-5527           
1 56497U 23064BB  25254.89324608  .00000050  00000+0  11961-4 0  9990
2 56497  70.0003 195.1402 0002459 274.2850  85.8028 14.98336448129455
STARLINK-5522           
1 56498U 23064BC  25254.90560574 -.00000015  00000+0  65448-5 0  9999
2 56498  69.9994 195.1824 0003206 269.4259  90.6532 14.98329777129451
STARLINK-5775           
1 56503U 23065A   25254.28752470  .00000717  00000+0  68142-4 0  9997
2 56503  43.0042 105.5414 0001232 270.6479  89.4222 15.02543486129633
STARLINK-5716           
1 56504U 23065B   25254.28419738  .00000049  00000+0  18681-4 0  9996
2 56504  43.0037 105.5153 0001316 268.7524  91.3167 15.02537847129634
STARLINK-5763           
1 56505U 23065C   25254.28197674  .00000362  00000+0  41895-4 0  9990
2 56505  43.0026 105.4984 0001309 270.0643  90.0049 15.02534915129632
STARLINK-5340           
1 56506U 23065D   25253.95761425 -.00000064  00000+0  10303-4 0  9995
2 56506  43.0033  94.3480 0001398 268.5584  91.5098 15.02538306129731
STARLINK-5333           
1 56507U 23065E   25254.48661657  .00000273  00000+0  35301-4 0  9997
2 56507  43.0044  65.4101 0001342 262.3309  97.7381 15.02538289130116
STARLINK-5335           
1 56508U 23065F   25254.27864832 -.00000234  00000+0 -22507-5 0  9999
2 56508  43.0037 105.4722 0000936 263.9709  96.1027 15.02535537129630
STARLINK-5334           
1 56509U 23065G   25254.26976867  .00000098  00000+0  22307-4 0  9994
2 56509  43.0035 105.4057 0001359 270.4669  89.6017 15.02538348129637
STARLINK-5339           
1 56510U 23065H   25254.27642691  .00000063  00000+0  19775-4 0  9999
2 56510  43.0039 105.4569 0001385 266.6326  93.4358 15.02539822129636
